     2.100          NAVIGATION                              RINEX VERSION / TYPE
fic2rin                                 01/09/2015 00:17:53 PGM / RUN BY / DATE
                                                            END OF HEADER
17 15  1  8  2  0  0.0 -.148696824908D-03 -.216004991671D-11  .000000000000D+00
     .100000000000D+02 -.916875000000D+02  .441232664826D-08 -.228528827577D+00
    -.475160777569D-05  .996397889685D-02  .521168112755D-05  .515369871902D+04
     .352800000000D+06 -.391155481339D-07 -.431171003752D+00  .111758708954D-06
     .971243785665D+00  .286593750000D+03 -.205659020613D+01 -.830856037060D-08
    -.321799118511D-09  .100000000000D+01  .182600000000D+04  .000000000000D+00
     .240000000000D+01  .000000000000D+00 -.107102096081D-07  .100000000000D+02
     .345606000000D+06  .400000000000D+01
18 15  1  8  2  0  0.0  .370721332729D-03  .272848410532D-11  .000000000000D+00
     .780000000000D+02  .343125000000D+02  .572488132143D-08  .125629124925D+01
     .174157321453D-05  .155621743761D-01  .621750950813D-05  .515374612427D+04
     .352800000000D+06 -.312924385071D-06  .160296300317D+01 -.931322574615D-08
     .924797159228D+00  .241968750000D+03 -.199632059403D+01 -.882643908519D-08
     .372158359032D-09  .100000000000D+01  .182600000000D+04  .000000000000D+00
     .240000000000D+01  .000000000000D+00 -.111758708954D-07  .780000000000D+02
     .345606000000D+06  .400000000000D+01
19 15  1  8  2  0  0.0 -.495754648000D-03 -.159161572810D-11  .000000000000D+00
     .720000000000D+02 -.102937500000D+03  .436339603867D-08 -.105760891290D+01
    -.536628067493D-05  .108269671910D-01  .535696744919D-05  .515368448257D+04
     .352800000000D+06  .327825546265D-06 -.381104815162D+00 -.335276126862D-07
     .968357939835D+00  .279281250000D+03  .515563868722D+00 -.812033824468D-08
    -.350371737246D-09  .100000000000D+01  .182600000000D+04  .000000000000D+00
     .240000000000D+01  .000000000000D+00 -.149011611938D-07  .720000000000D+02
     .345606000000D+06  .400000000000D+01
20 15  1  8  2  0  0.0  .276201404631D-03  .420641299570D-11  .000000000000D+00
     .730000000000D+02  .358125000000D+02  .550594363037D-08  .156291606986D+01
     .183470547199D-05  .583316513803D-02  .611320137978D-05  .515577720261D+04
     .352800000000D+06 -.130385160446D-06  .155013952268D+01 -.106170773506D-06
     .925960016717D+00  .241531250000D+03  .123682989059D+01 -.855107047212D-08
     .439304013061D-09  .100000000000D+01  .182600000000D+04  .000000000000D+00
     .240000000000D+01  .000000000000D+00 -.838190317154D-08  .730000000000D+02
     .345606000000D+06  .400000000000D+01
21 15  1  8  2  0  0.0 -.404894817621D-03 -.227373675443D-11  .000000000000D+00
     .840000000000D+02 -.616562500000D+02  .469090968093D-08  .224810999901D+01
    -.335462391376D-05  .219621952856D-01  .121425837278D-04  .515364100456D+04
     .352800000000D+06  .169500708580D-06  .558902038548D+00 -.400468707085D-06
     .933530486115D+00  .126406250000D+03 -.196241425059D+01 -.774567978151D-08
     .256796410887D-09  .100000000000D+01  .182600000000D+04  .000000000000D+00
     .240000000000D+01  .000000000000D+00 -.116415321827D-07  .840000000000D+02
     .345606000000D+06  .400000000000D+01
22 15  1  8  2  0  0.0  .304983928800D-03  .375166564481D-11  .000000000000D+00
     .530000000000D+02  .341250000000D+02  .573916763080D-08  .758093619608D+00
     .180490314960D-05  .734909833409D-02  .606290996075D-05  .515370216751D+04
     .352800000000D+06 -.819563865662D-07  .160440993009D+01  .223517417908D-07
     .922598001293D+00  .242343750000D+03 -.206645802013D+01 -.874393564859D-08
     .366443835285D-09  .100000000000D+01  .182600000000D+04  .000000000000D+00
     .340000000000D+01  .000000000000D+00 -.176951289177D-07  .530000000000D+02
     .345606000000D+06  .400000000000D+01
23 15  1  8  2  0  0.0 -.801328569651D-04 -.272848410532D-11  .000000000000D+00
     .110000000000D+03 -.266250000000D+02  .496056377025D-08 -.150698505586D+01
    -.157020986080D-05  .970823981334D-02  .658445060253D-05  .515367751503D+04
     .352800000000D+06  .111758708954D-06  .267289406628D+01 -.119209289551D-06
     .949702786545D+00  .242781250000D+03 -.271631532546D+01 -.817105464294D-08
    -.282868925483D-09  .100000000000D+01  .182600000000D+04  .000000000000D+00
     .340000000000D+01  .000000000000D+00 -.200234353542D-07  .110000000000D+03
     .345606000000D+06  .400000000000D+01
24 15  1  8  2  0  0.0 -.414196401834D-04 -.682121026330D-12  .000000000000D+00
     .840000000000D+02  .694375000000D+02  .442589864216D-08 -.213397822142D+01
     .346451997757D-05  .285194313619D-02  .111814588308D-04  .515369619560D+04
     .352800000000D+06  .204890966415D-07 -.258384675189D+01 -.838190317154D-07
     .955166920159D+00  .161562500000D+03  .240633711040D+00 -.790532928870D-08
    -.492877673191D-10  .100000000000D+01  .182600000000D+04  .000000000000D+00
     .340000000000D+01  .000000000000D+00  .279396772385D-08  .840000000000D+02
     .345606000000D+06  .400000000000D+01
25 15  1  8  2  0  0.0  .464171171188D-05 -.238742359215D-11  .000000000000D+00
     .150000000000D+02  .757500000000D+02  .439554023475D-08  .211287743337D+01
     .385195016861D-05  .396833172999D-02  .306218862534D-05  .515374022293D+04
     .352800000000D+06 -.100582838058D-06 -.152382282310D+01 -.465661287308D-07
     .977377722174D+00  .328156250000D+03  .663726680115D+00 -.820927052050D-08
     .250724729406D-09  .100000000000D+01  .182600000000D+04  .000000000000D+00
     .240000000000D+01  .000000000000D+00  .512227416039D-08  .150000000000D+02
     .345606000000D+06  .400000000000D+01
27 15  1  8  2  0  0.0  .427486374974D-04  .272848410532D-11  .000000000000D+00
     .450000000000D+02 -.101218750000D+03  .450733060555D-08 -.211458484163D+00
    -.541657209396D-05  .178776658140D-02  .448897480965D-05  .515368804550D+04
     .352800000000D+06  .428408384323D-07 -.478090129321D+00  .707805156708D-07
     .966056405430D+00  .295125000000D+03  .176491109643D+00 -.827570185906D-08
    -.390016245742D-09  .100000000000D+01  .182600000000D+04  .000000000000D+00
     .240000000000D+01  .000000000000D+00  .139698386192D-08  .450000000000D+02
     .345606000000D+06  .400000000000D+01
28 15  1  8  2  0  0.0  .410892535001D-03  .261479726760D-11  .000000000000D+00
     .700000000000D+01  .487812500000D+02  .425374861428D-08  .553838122747D+00
     .261142849922D-05  .197610494215D-01  .368990004063D-05  .515368565369D+04
     .352800000000D+06 -.244006514549D-06 -.145462087313D+01 -.167638063431D-07
     .987920725538D+00  .328343750000D+03 -.168261961234D+01 -.847606734794D-08
     .489306095849D-10  .100000000000D+01  .182600000000D+04  .000000000000D+00
     .240000000000D+01  .000000000000D+00 -.111758708954D-07  .700000000000D+01
     .345606000000D+06  .400000000000D+01
29 15  1  8  2  0  0.0  .584556255490D-03  .238742359215D-11  .000000000000D+00
     .850000000000D+02 -.108000000000D+03  .428089260207D-08  .258144996981D+01
    -.567361712456D-05  .124044436961D-02  .535883009434D-05  .515357720947D+04
     .352800000000D+06 -.167638063431D-07 -.421930579719D+00  .447034835815D-07
     .972052728161D+00  .280968750000D+03 -.873773164525D+00 -.807497921244D-08
    -.377515725045D-09  .100000000000D+01  .182600000000D+04  .000000000000D+00
     .240000000000D+01  .000000000000D+00 -.977888703346D-08  .850000000000D+02
     .345606000000D+06  .400000000000D+01
30 15  1  8  2  0  0.0 -.863764435053D-04 -.227373675443D-12  .000000000000D+00
     .250000000000D+02  .736875000000D+02  .440768359771D-08 -.311276259199D+01
     .387057662010D-05  .974115799181D-03  .999309122562D-05  .515362856865D+04
     .352800000000D+06  .186264514923D-08 -.249410756502D+01  .111758708954D-07
     .957552123238D+00  .188281250000D+03  .312460591302D+01 -.789711466081D-08
     .125005206969D-10  .100000000000D+01  .182600000000D+04  .000000000000D+00
     .240000000000D+01  .000000000000D+00  .325962901115D-08  .250000000000D+02
     .345606000000D+06  .400000000000D+01
31 15  1  8  2  0  0.0  .325914472342D-03 -.795807864051D-12  .000000000000D+00
     .300000000000D+02  .754062500000D+02  .394302138552D-08 -.308998596545D+01
     .400096178055D-05  .831399811432D-02  .115148723125D-04  .515371363640D+04
     .352800000000D+06 -.875443220139D-07 -.253825518936D+01  .102445483208D-06
     .976797975054D+00  .165500000000D+03 -.578977546316D+00 -.754781439677D-08
    -.514307137242D-10  .100000000000D+01  .182600000000D+04  .000000000000D+00
     .240000000000D+01  .000000000000D+00 -.135041773319D-07  .300000000000D+02
     .345606000000D+06  .400000000000D+01
32 15  1  8  2  0  0.0 -.252622179687D-03  .864019966684D-11  .000000000000D+00
     .107000000000D+03  .291562500000D+02  .505235330794D-08 -.254553448979D+01
     .151060521603D-05  .113771583419D-01  .596046447754D-05  .515358797264D+04
     .352800000000D+06 -.221654772758D-06  .170201078751D+01 -.100582838058D-06
     .946680176892D+00  .258500000000D+03  .148645350533D-02 -.820677041636D-08
     .381444460121D-09  .100000000000D+01  .182600000000D+04  .000000000000D+00
     .240000000000D+01  .000000000000D+00 -.325962901115D-08  .107000000000D+03
     .345606000000D+06  .400000000000D+01
23 15  1  8  1 59 28.0 -.801323913038D-04 -.272848410532D-11  .000000000000D+00
     .400000000000D+01 -.266250000000D+02  .496020661252D-08 -.151165263790D+01
    -.157020986080D-05  .970823760144D-02  .658445060253D-05  .515367750740D+04
     .352768000000D+06  .111758708954D-06  .267289433106D+01 -.119209289551D-06
     .949702818729D+00  .242781250000D+03 -.271631520257D+01 -.817069748520D-08
    -.282868925483D-09  .100000000000D+01  .182600000000D+04  .000000000000D+00
     .240000000000D+01  .000000000000D+00 -.200234353542D-07  .400000000000D+01
     .347466000000D+06  .400000000000D+01
